OBJECT_NAME,OBJECT_ID,EPOCH,MEAN_MOTION,ECCENTRICITY,INCLINATION,RA_OF_ASC_NODE,ARG_OF_PERICENTER,MEAN_ANOMALY,EPHEMERIS_TYPE,CLASSIFICATION_TYPE,NORAD_CAT_ID,ELEMENT_SET_NO,REV_AT_EPOCH,BSTAR,MEAN_MOTION_DOT,MEAN_MOTION_DDOT
WEILAI 1R,2019-093F,2026-07-04T06:10:13.076256,15.00792695,.00168057,97.7875,275.1717,344.4420,15.6285,0,U,44884,999,35498,.46134687E-3,.5814E-4,0
FLORIPASAT-1,2019-093G,2026-07-03T11:01:36.221664,15.04053163,.00118803,97.7942,278.8109,23.0733,337.1024,0,U,44885,999,35509,.45002866E-3,.6174E-4,0
SHUNTIAN,2019-093H,2026-07-04T06:33:26.672832,14.95245638,.00119572,97.8017,273.3478,16.9420,343.2198,0,U,44886,999,35473,.33380279E-3,.3619E-4,0
ELEKTRO-L 3,2019-095A,2026-07-04T03:58:58.696896,1.00272422,.00016524,0.2986,81.9745,8.3091,327.6323,0,U,44903,999,2387,0,-.85E-6,0
GONETS-M 14,2019-096A,2026-07-04T06:35:44.035872,12.42870650,.00142058,82.5228,74.0472,112.4727,247.7859,0,U,44905,999,29580,.50352235E-3,.8E-6,0
GONETS-M 15,2019-096B,2026-07-04T07:18:03.070080,12.42872080,.00156862,82.5248,74.4933,134.5522,225.6841,0,U,44906,999,29577,.40385128E-3,.66E-6,0
GONETS-M 16,2019-096C,2026-07-04T05:59:28.452768,12.42892504,.00105104,82.5193,73.4713,175.0059,185.1127,0,U,44907,999,29575,.75229967E-3,.114E-5,0
RS-44 & BREEZE-KM R/B,2019-096E,2026-07-03T19:32:18.490560,12.79748962,.02185784,82.5235,328.6557,105.4674,257.0682,0,U,44909,999,30447,-.1716749E-5,.13E-6,0
JILIN-1 KUANFU 01,2020-003A,2026-07-04T04:12:04.405536,15.10818479,.00083693,97.5020,258.7993,238.5234,121.5179,0,U,45016,999,35789,.20335715E-3,.3318E-4,0
XINGYUN-2 01,2020-028A,2026-07-04T06:49:26.392800,15.11878800,.00103111,97.4873,177.3471,135.8852,224.3203,0,U,45602,999,33742,.14203571E-3,.2369E-4,0
XINGYUN-2 02,2020-028B,2026-07-04T06:23:02.611680,15.11606360,.00098874,97.5071,190.9578,203.8575,156.2198,0,U,45603,999,33741,.15018354E-3,.2488E-4,0
HAIYANG-1D,2020-036A,2026-07-04T06:36:18.740160,14.34179760,.00040142,98.4562,126.5842,91.4539,268.7106,0,U,45721,999,31742,.14849642E-3,.373E-5,0
M2 PATHFINDER,2020-037E,2026-07-04T00:06:09.322848,15.04756058,.00129919,97.8151,16.4248,96.2202,264.0504,0,U,45727,999,32802,.23993349E-3,.3324E-4,0
GAOFEN DUOMO (GFDM),2020-042A,2026-07-04T06:44:11.406048,14.76904512,.00116037,97.7735,244.5452,25.1925,334.9849,0,U,45856,999,32353,.1459057E-3,.978E-5,0
ZIYUAN 3-03 (ZY 3-03),2020-051A,2026-07-04T06:51:12.957696,15.21390068,.0002138,97.2821,252.4574,245.2518,114.8496,0,U,45939,999,32994,.13374188E-3,.2932E-4,0
NEMO-HD,2020-061F,2026-07-04T07:05:57.139008,15.44950228,.00013568,97.1905,247.0789,74.3813,285.7586,0,U,46277,999,32462,.31038297E-3,.14531E-3,0
NAPA-1,2020-061BA,2026-07-04T07:37:06.141216,15.70452823,.00019101,97.2447,260.0870,184.3694,175.7553,0,U,46320,999,32442,.93640919E-3,.115749E-2,0
JILIN-1 GAOFEN 3E,2020-065D,2026-07-04T04:04:32.258784,15.65848687,.00118597,97.2218,238.1946,106.2414,254.0152,0,U,46457,999,32241,.93632329E-3,.96094E-3,0
JILIN-1 GAOFEN 3F,2020-065E,2026-07-04T03:53:16.408608,15.62786868,.00132858,97.2174,235.4373,94.0047,266.2731,0,U,46458,999,32235,.89867207E-3,.8168E-3,0
JILIN-1 GAOFEN 3G,2020-065F,2026-07-04T04:46:18.431616,15.74651335,.00048075,97.2236,242.5797,340.9880,19.1205,0,U,46459,999,32261,.10292055E-2,.152642E-2,0
JILIN-1 GAOFEN 3H,2020-065G,2026-07-04T03:32:38.720832,15.70475554,.00046928,97.2186,238.7439,244.7888,115.2889,0,U,46460,999,32254,.92846996E-3,.114912E-2,0
HAIYANG-2C,2020-066A,2026-07-04T07:11:26.945952,13.83376470,.00081911,65.9953,172.6775,237.5492,122.4785,0,U,46469,999,29186,-.86227274E-4,-.176E-5,0
HJ-2A,2020-067A,2026-07-04T05:49:25.972608,14.76537188,.00032398,97.8826,263.2117,189.4456,170.6693,0,U,46478,999,31077,.9418585E-4,.607E-5,0
HJ-2B,2020-067B,2026-07-04T06:41:50.238816,14.76579850,.00016475,97.8890,264.2835,100.2425,259.8971,0,U,46479,999,31078,.80756458E-4,.514E-5,0
GONETS-M 17,2020-068A,2026-07-04T06:35:55.953024,12.42873499,.00223051,82.5004,336.8703,0.8459,359.2655,0,U,46486,999,26128,-.11416975E-3,-.6E-7,0
GONETS-M 18,2020-068B,2026-07-04T05:43:35.390784,12.42874510,.00195506,82.4957,336.0043,357.6579,2.4406,0,U,46487,999,26126,.31128086E-3,.53E-6,0
GONETS-M 19,2020-068C,2026-07-04T07:03:45.719424,12.42892787,.00135663,82.4982,336.4232,14.0776,346.0679,0,U,46488,999,26137,.72349447E-3,.11E-5,0
