WEILAI 1R               
1 44884U 19093F   26185.25709579  .00005814  00000+0  46135-3 0  9995
2 44884  97.7875 275.1717 0016805 344.4420  15.6285 15.00792695354984
FLORIPASAT-1            
1 44885U 19093G   26184.45944701  .00006174  00000+0  45003-3 0  9998
2 44885  97.7942 278.8109 0011880  23.0733 337.1024 15.04053163355090
SHUNTIAN                
1 44886U 19093H   26185.27322538  .00003619  00000+0  33380-3 0  9994
2 44886  97.8017 273.3478 0011957  16.9420 343.2198 14.95245638354732
ELEKTRO-L 3             
1 44903U 19095A   26185.16595714 -.00000085  00000+0  00000+0 0  9996
2 44903   0.2986  81.9745 0001652   8.3091 327.6323  1.00272422 23872
GONETS-M 14             
1 44905U 19096A   26185.27481523  .00000080  00000+0  50352-3 0  9996
2 44905  82.5228  74.0472 0014205 112.4727 247.7859 12.42870650295802
GONETS-M 15             
1 44906U 19096B   26185.30420220  .00000066  00000+0  40385-3 0  9997
2 44906  82.5248  74.4933 0015686 134.5522 225.6841 12.42872080295774
GONETS-M 16             
1 44907U 19096C   26185.24963487  .00000114  00000+0  75230-3 0  9999
2 44907  82.5193  73.4713 0010510 175.0059 185.1127 12.42892504295753
RS-44 & BREEZE-KM R/B   
1 44909U 19096E   26184.81410290  .00000013  00000+0 -17167-5 0  9998
2 44909  82.5235 328.6557 0218578 105.4674 257.0682 12.79748962304470
JILIN-1 KUANFU 01       
1 45016U 20003A   26185.17505099  .00003318  00000+0  20336-3 0  9990
2 45016  97.5020 258.7993 0008369 238.5234 121.5179 15.10818479357899
XINGYUN-2 01            
1 45602U 20028A   26185.28433325  .00002369  00000+0  14204-3 0  9994
2 45602  97.4873 177.3471 0010311 135.8852 224.3203 15.11878800337429
XINGYUN-2 02            
1 45603U 20028B   26185.26600245  .00002488  00000+0  15018-3 0  9996
2 45603  97.5071 190.9578 0009887 203.8575 156.2198 15.11606360337419
HAIYANG-1D              
1 45721U 20036A   26185.27521690  .00000373  00000+0  14850-3 0  9997
2 45721  98.4562 126.5842 0004014  91.4539 268.7106 14.34179760317422
M2 PATHFINDER           
1 45727U 20037E   26185.00427457  .00003324  00000+0  23993-3 0  9998
2 45727  97.8151  16.4248 0012991  96.2202 264.0504 15.04756058328023
GAOFEN DUOMO (GFDM)     
1 45856U 20042A   26185.28068757  .00000978  00000+0  14591-3 0  9997
2 45856  97.7735 244.5452 0011603  25.1925 334.9849 14.76904512323534
ZIYUAN 3-03 (ZY 3-03)   
1 45939U 20051A   26185.28556664  .00002932  00000+0  13374-3 0  9998
2 45939  97.2821 252.4574 0002138 245.2518 114.8496 15.21390068329946
NEMO-HD                 
1 46277U 20061F   26185.29580022  .00014531  00000+0  31038-3 0  9996
2 46277  97.1905 247.0789 0001356  74.3813 285.7586 15.44950228324625
NAPA-1                  
1 46320U 20061BA  26185.31743219  .00115749  00000+0  93641-3 0  9998
2 46320  97.2447 260.0870 0001910 184.3694 175.7553 15.70452823324424
JILIN-1 GAOFEN 3E       
1 46457U 20065D   26185.16981781  .00096094  00000+0  93632-3 0  9995
2 46457  97.2218 238.1946 0011859 106.2414 254.0152 15.65848687322411
JILIN-1 GAOFEN 3F       
1 46458U 20065E   26185.16199547  .00081680  00000+0  89867-3 0  9997
2 46458  97.2174 235.4373 0013285  94.0047 266.2731 15.62786868322358
JILIN-1 GAOFEN 3G       
1 46459U 20065F   26185.19882444  .00152642  00000+0  10292-2 0  9998
2 46459  97.2236 242.5797 0004807 340.9880  19.1205 15.74651335322618
JILIN-1 GAOFEN 3H       
1 46460U 20065G   26185.14767038  .00114912  00000+0  92847-3 0  9991
2 46460  97.2186 238.7439 0004692 244.7888 115.2889 15.70475554322546
HAIYANG-2C              
1 46469U 20066A   26185.29961743 -.00000176  00000+0 -86227-4 0  9990
2 46469  65.9953 172.6775 0008191 237.5492 122.4785 13.83376470291861
HJ-2A                   
1 46478U 20067A   26185.24266172  .00000607  00000+0  94186-4 0  9990
2 46478  97.8826 263.2117 0003239 189.4456 170.6693 14.76537188310777
HJ-2B                   
1 46479U 20067B   26185.27905369  .00000514  00000+0  80756-4 0  9997
2 46479  97.8890 264.2835 0001647 100.2425 259.8971 14.76579850310787
GONETS-M 17             
1 46486U 20068A   26185.27495316 -.00000006  00000+0 -11417-3 0  9997
2 46486  82.5004 336.8703 0022305   0.8459 359.2655 12.42873499261280
GONETS-M 18             
1 46487U 20068B   26185.23860406  .00000053  00000+0  31128-3 0  9991
2 46487  82.4957 336.0043 0019550 357.6579   2.4406 12.42874510261264
GONETS-M 19             
1 46488U 20068C   26185.29427916  .00000110  00000+0  72349-3 0  9997
2 46488  82.4982 336.4232 0013566  14.0776 346.0679 12.42892787261378
